STARLINK-30981          
1 58494U 23186X   26068.06319376  .00000481  00000+0  27010-4 0  9993
2 58494  43.0033  66.9033 0001484 266.4652  93.6030 15.27574809125793
TEVEL2-1                
1 63217U 25052H   26068.64782323  .00020683  00000+0  70600-3 0  9994
2 63217  97.3991 324.7682 0004767 104.8919 255.2849 15.30341923 54855
